ONEWEB-0299             
1 49088U 21075P   23059.01019756  .00000049  00000+0  93967-4 0  9992
2 49088  87.9132 245.2792 0001937  96.2958 263.8394 13.17601766 75860
ONEWEB-0299             
1 49088U 21075P   23059.54177044  .00000027  00000+0  36975-4 0  9997
2 49088  87.9131 245.1734 0001950  95.9687 264.1667 13.17601414 74961
ONEWEB-0299             
1 49088U 21075P   23059.92146503  .00000048  00000+0  90215-4 0  9995
2 49088  87.9132 245.0980 0001962  95.8864 264.2491 13.17601481 75010
ONEWEB-0299             
1 49088U 21075P   23060.07334307  .00000012  00000+0 -19785-5 0  9990
2 49088  87.9131 245.0678 0001955  95.7785 264.3570 13.17601354 76004
ONEWEB-0299             
1 49088U 21075P   23060.90867167 -.00000072  00000+0 -21797-3 0  9998
2 49088  87.9133 244.9019 0001941  95.5737 264.5616 13.17601175 75141
ONEWEB-0299             
1 49088U 21075P   23061.74399862  .00000050  00000+0  94985-4 0  9997
2 49088  87.9134 244.7360 0001942  95.1114 265.0239 13.17602160 75259
ONEWEB-0299             
1 49088U 21075P   23062.42744878  .00000100  00000+0  22386-3 0  9995
2 49088  87.9135 244.6002 0001930  94.9709 265.1643 13.17601961 75344
ONEWEB-0299             
1 49088U 21075P   23062.42744878  .00000100  00000+0  22386-3 0  9995
2 49088  87.9135 244.6002 0001930  94.9709 265.1643 13.17601961 76312
ONEWEB-0299             
1 49088U 21075P   23062.88308255  .00000032  00000+0  50078-4 0  9994
2 49088  87.9137 244.5098 0001920  94.9851 265.1499 13.17601663 75402
